{"type":"FeatureCollection","attribution":"Botswana subnational boundaries (ADM2, 2011) \u00a9 OCHA / COD-AB via HDX, CC-BY 3.0 IGO; simplified.","features":[{"type":"Feature","properties":{"name":"Barolong"},"geometry":{"type":"Polygon","coordinates":[[[25.02871,-25.18071],[25.08212,-25.23556],[25.0809,-25.28445],[25.3372,-25.29417],[25.3376,-25.26976],[25.42998,-25.28241],[25.5369,-25.27454],[25.54081,-25.30349],[25.51429,-25.30338],[25.51417,-25.31928],[25.58048,-25.31585],[25.54061,-25.4335],[25.66046,-25.47474],[25.58191,-25.63786],[25.33424,-25.77096],[25.12117,-25.76412],[25.10465,-25.74189],[25.03735,-25.72259],[24.91269,-25.78481],[24.89686,-25.81094],[24.81329,-25.81074],[24.79466,-25.82563],[24.72635,-25.80401],[24.68248,-25.82383],[24.50486,-25.75657],[24.49727,-25.64674],[24.40827,-25.64649],[24.25216,-25.50233],[24.25564,-25.39236],[24.6697,-25.36936],[24.66709,-25.32412],[24.93922,-25.25558],[24.94603,-25.19439],[24.99997,-25.1532],[25.02871,-25.18071]]]}},{"type":"Feature","properties":{"name":"Bobonong"},"geometry":{"type":"Polygon","coordinates":[[[27.87736,-21.54239],[28.19914,-21.60335],[28.29398,-21.58938],[28.36516,-21.60244],[28.5018,-21.66875],[28.5784,-21.62925],[28.86232,-21.75574],[28.99949,-21.77106],[29.00708,-21.78898],[29.07673,-21.81817],[29.03885,-21.86116],[29.02067,-21.91472],[29.02619,-21.97235],[29.05383,-22.02226],[29.13911,-22.0721],[29.24701,-22.05976],[29.28887,-22.12278],[29.3753,-22.19547],[29.33368,-22.20435],[29.32081,-22.18713],[29.25719,-22.19331],[29.21776,-22.17801],[29.15044,-22.21557],[29.03575,-22.21669],[28.96679,-22.30657],[28.97152,-22.37631],[28.91782,-22.46053],[28.85521,-22.45129],[28.83024,-22.46344],[28.82921,-22.48867],[28.73821,-22.50424],[28.64646,-22.55645],[28.56489,-22.55912],[28.51179,-22.58904],[28.47795,-22.57069],[28.34598,-22.57188],[28.31032,-22.60676],[28.278,-22.61505],[28.26848,-22.63659],[28.1931,-22.52346],[28.06391,-22.4197],[27.94827,-22.36616],[27.92257,-22.32833],[27.91306,-22.26123],[27.88748,-22.23148],[27.6225,-22.2286],[27.40657,-22.17625],[27.3911,-22.12628],[27.3566,-22.11439],[27.26936,-22.10813],[27.2997,-21.95143],[27.33769,-21.88486],[27.35512,-21.7188],[27.49004,-21.74336],[27.58779,-21.73764],[27.65571,-21.59873],[27.73407,-21.5512],[27.7607,-21.56371],[27.82755,-21.54228],[27.85237,-21.54929],[27.85951,-21.5312],[27.87736,-21.54239]],[[27.78544,-21.99671],[27.88689,-21.99909],[27.88494,-21.91927],[27.79086,-21.91735],[27.78544,-21.99671]]]}},{"type":"Feature","properties":{"name":"Boteti"},"geometry":{"type":"Polygon","coordinates":[[[24.15677,-20.20088],[24.19689,-20.21872],[24.22899,-20.25567],[24.25933,-20.2207],[24.28194,-20.25579],[24.26802,-20.28268],[24.28271,-20.31564],[24.32679,-20.3217],[24.35884,-20.37538],[24.40896,-20.40319],[24.47246,-20.38505],[24.9628,-20.35439],[24.96111,-20.65949],[25.4351,-20.66521],[25.5379,-20.88983],[26.1502,-20.88983],[26.28321,-20.96086],[26.29586,-21.0532],[26.39334,-21.04776],[26.38882,-21.08401],[26.3592,-21.10673],[26.28604,-21.11146],[26.29718,-21.29278],[26.15266,-21.31643],[26.06589,-21.64171],[25.01143,-22.41185],[23.88411,-21.00068],[23.8862,-20.31001],[23.94111,-20.32678],[23.97138,-20.30604],[23.99841,-20.31022],[23.9946,-20.29233],[24.02986,-20.25216],[24.05538,-20.25567],[24.09752,-20.21563],[24.15677,-20.20088]],[[25.34081,-21.31789],[25.34069,-21.34796],[25.45633,-21.34796],[25.46109,-21.18282],[25.34096,-21.17688],[25.34081,-21.31789]]]}},{"type":"Feature","properties":{"name":"Central Kgalagadi Game Reserve"},"geometry":{"type":"Polygon","coordinates":[[[22.83022,-21.00102],[23.88411,-21.00068],[25.44708,-22.94644],[25.23898,-23.32135],[22.79647,-23.3215],[22.79746,-21.00061],[22.83022,-21.00102]]]}},{"type":"Feature","properties":{"name":"Chobe"},"geometry":{"type":"Polygon","coordinates":[[[25.1633,-17.77814],[25.26291,-17.79134],[25.23745,-17.91235],[25.31883,-18.078],[25.3553,-18.09075],[25.41587,-18.15304],[25.52228,-18.38353],[25.60363,-18.478],[25.64785,-18.4966],[25.6922,-18.57301],[25.78245,-18.62449],[25.80372,-18.6859],[25.79173,-18.69863],[25.79552,-18.75092],[25.82546,-18.8373],[25.94704,-18.90773],[25.98871,-19.00028],[23.9124,-18.99367],[23.91493,-18.26328],[23.93233,-18.25006],[23.91912,-18.22446],[23.9315,-18.2044],[23.95975,-18.18399],[23.97536,-18.19138],[23.98917,-18.16534],[24.04878,-18.13827],[24.06118,-18.12321],[24.05133,-18.11002],[24.08988,-18.12053],[24.10807,-18.11052],[24.19254,-18.01982],[24.23706,-18.02658],[24.26868,-18.01129],[24.29595,-18.03586],[24.30353,-18.00718],[24.37201,-17.94925],[24.42346,-17.95179],[24.45024,-17.97354],[24.45717,-17.96336],[24.45441,-17.98487],[24.48721,-18.01474],[24.49527,-18.05528],[24.57542,-18.07387],[24.61615,-18.02048],[24.61686,-17.99437],[24.66578,-17.94975],[24.69923,-17.94288],[24.73957,-17.88427],[24.75718,-17.89495],[24.77076,-17.87221],[24.79594,-17.87569],[24.82345,-17.84591],[24.85361,-17.85066],[24.90063,-17.8303],[24.91112,-17.81007],[24.93195,-17.81992],[24.96114,-17.78787],[24.98218,-17.79274],[24.96466,-17.80388],[24.97637,-17.82592],[25.00529,-17.81604],[24.9999,-17.83138],[25.01339,-17.83828],[25.05417,-17.80776],[25.06154,-17.82593],[25.04925,-17.83066],[25.06612,-17.841],[25.11615,-17.82581],[25.12902,-17.80193],[25.14394,-17.80797],[25.1633,-17.77814]]]}},{"type":"Feature","properties":{"name":"Francistown"},"geometry":{"type":"Polygon","coordinates":[[[27.55495,-21.08835],[27.53639,-21.13007],[27.56512,-21.20899],[27.54247,-21.22269],[27.50208,-21.1982],[27.48601,-21.15741],[27.49657,-21.12372],[27.51417,-21.12351],[27.5169,-21.08063],[27.55495,-21.08835]]]}},{"type":"Feature","properties":{"name":"Gaborone"},"geometry":{"type":"Polygon","coordinates":[[[25.98028,-24.54555],[25.93888,-24.60361],[25.97219,-24.62502],[25.93507,-24.69212],[25.94319,-24.74703],[25.84764,-24.75411],[25.84912,-24.79734],[25.82669,-24.81593],[25.81657,-24.80938],[25.82847,-24.77786],[25.7595,-24.73687],[25.80037,-24.697],[25.81613,-24.71343],[25.83181,-24.69548],[25.81567,-24.68206],[25.96399,-24.53454],[25.98028,-24.54555]]]}},{"type":"Feature","properties":{"name":"Ghanzi"},"geometry":{"type":"Polygon","coordinates":[[[21.00024,-20.9951],[22.79746,-21.00061],[22.79647,-23.3215],[19.99911,-23.3205],[19.99915,-21.99992],[20.99874,-22.00034],[21.00024,-20.9951]]]}},{"type":"Feature","properties":{"name":"Jwaneng"},"geometry":{"type":"Polygon","coordinates":[[[24.77305,-24.56651],[24.78154,-24.59482],[24.74164,-24.61542],[24.74266,-24.56642],[24.77305,-24.56651]]]}},{"type":"Feature","properties":{"name":"Kgalagadi North"},"geometry":{"type":"Polygon","coordinates":[[[21.32926,-23.32076],[23.05903,-23.32085],[23.05902,-23.44088],[22.96451,-23.44084],[22.96447,-23.60067],[23.05906,-23.60069],[23.05899,-24.85345],[20.00087,-24.76845],[19.99911,-23.3205],[21.32926,-23.32076]]]}},{"type":"Feature","properties":{"name":"Kgalagadi South"},"geometry":{"type":"Polygon","coordinates":[[[20.00097,-24.76845],[21.98665,-24.83231],[23.05899,-24.85345],[24.14021,-24.85419],[24.27033,-24.98251],[24.25216,-25.50233],[24.40827,-25.64649],[24.49727,-25.64674],[24.50486,-25.75657],[24.44641,-25.73347],[24.42583,-25.7515],[24.40566,-25.74677],[24.40097,-25.76245],[24.35626,-25.75774],[24.32432,-25.73192],[24.3265,-25.71104],[24.28526,-25.72645],[24.28819,-25.69411],[24.26037,-25.70713],[24.2263,-25.64359],[24.19197,-25.6206],[24.15907,-25.62988],[24.15668,-25.6082],[24.086,-25.64329],[24.06702,-25.63118],[24.05851,-25.65193],[24.02994,-25.6342],[24.00499,-25.65129],[24.01174,-25.62433],[23.97168,-25.61481],[23.94588,-25.6385],[23.90389,-25.6274],[23.90704,-25.60603],[23.88268,-25.59502],[23.8798,-25.57731],[23.8397,-25.5679],[23.83507,-25.54111],[23.80849,-25.54503],[23.82084,-25.51242],[23.76293,-25.50306],[23.75872,-25.46881],[23.72925,-25.44632],[23.70346,-25.46258],[23.69516,-25.44469],[23.66667,-25.44146],[23.66875,-25.41624],[23.6376,-25.43158],[23.63244,-25.41051],[23.61132,-25.40292],[23.61563,-25.38363],[23.5896,-25.39644],[23.58475,-25.37592],[23.55686,-25.37143],[23.55978,-25.35483],[23.52458,-25.3402],[23.49632,-25.35181],[23.49453,-25.31824],[23.45776,-25.29716],[23.46626,-25.27669],[23.44175,-25.27725],[23.41416,-25.31583],[23.36834,-25.30345],[23.3562,-25.28514],[23.29409,-25.29396],[23.27889,-25.27408],[23.21183,-25.27352],[23.13484,-25.31734],[23.1074,-25.30411],[23.07842,-25.33201],[23.05471,-25.31924],[23.05806,-25.28982],[23.03095,-25.31298],[23.01015,-25.29721],[23.01108,-25.33619],[22.97718,-25.34053],[22.96908,-25.38221],[22.90955,-25.42272],[22.88554,-25.46889],[22.90024,-25.48682],[22.8465,-25.49],[22.86025,-25.50702],[22.85354,-25.53333],[22.81389,-25.58223],[22.85373,-25.61437],[22.80044,-25.63265],[22.83003,-25.65762],[22.82145,-25.69038],[22.79937,-25.72341],[22.76905,-25.73348],[22.75989,-25.78808],[22.73457,-25.79352],[22.78164,-25.82573],[22.71195,-25.89328],[22.74927,-25.91786],[22.72368,-25.95039],[22.72443,-26.01584],[22.66596,-26.01753],[22.67292,-26.07371],[22.63036,-26.09589],[22.6359,-26.11713],[22.60803,-26.12862],[22.60467,-26.14944],[22.57818,-26.14246],[22.57777,-26.19116],[22.55609,-26.22263],[22.52825,-26.2264],[22.47113,-26.20082],[22.4541,-26.22777],[22.42003,-26.22424],[22.39581,-26.278],[22.36291,-26.28595],[22.3628,-26.32551],[22.32518,-26.32229],[22.30647,-26.344],[22.24226,-26.35001],[22.2385,-26.37072],[22.19041,-26.40018],[22.20023,-26.42455],[22.18161,-26.43883],[22.18186,-26.46968],[22.15985,-26.48372],[22.16343,-26.50828],[22.07753,-26.58086],[22.05172,-26.63311],[21.94913,-26.66995],[21.82399,-26.65972],[21.78701,-26.67628],[21.76936,-26.69501],[21.79326,-26.77048],[21.78095,-26.80206],[21.69489,-26.86104],[21.62657,-26.8663],[21.57596,-26.83989],[21.54079,-26.84312],[21.52536,-26.86172],[21.40479,-26.82203],[21.3327,-26.82538],[21.29979,-26.84913],[21.22192,-26.84361],[21.13346,-26.87357],[21.07878,-26.84834],[21.01039,-26.84629],[20.97061,-26.8069],[20.94575,-26.81379],[20.89803,-26.79622],[20.8205,-26.81937],[20.81667,-26.84142],[20.7866,-26.84167],[20.76305,-26.86635],[20.71457,-26.87028],[20.68484,-26.90754],[20.68268,-26.84071],[20.64479,-26.82862],[20.65047,-26.80969],[20.62215,-26.78661],[20.63757,-26.76749],[20.61445,-26.68705],[20.63503,-26.66499],[20.63253,-26.59172],[20.6099,-26.55965],[20.6048,-26.51467],[20.61768,-26.44358],[20.69345,-26.39783],[20.72006,-26.33367],[20.79074,-26.27106],[20.81924,-26.18244],[20.86285,-26.13327],[20.82093,-26.10526],[20.84196,-26.08097],[20.81862,-26.05852],[20.83605,-26.03625],[20.81528,-26.0059],[20.84062,-25.95704],[20.80282,-25.92098],[20.81293,-25.86948],[20.78294,-25.85546],[20.78758,-25.80285],[20.73941,-25.82294],[20.76315,-25.77999],[20.73153,-25.77151],[20.72137,-25.72375],[20.67815,-25.69068],[20.68779,-25.63567],[20.65034,-25.63379],[20.66502,-25.60456],[20.6982,-25.59482],[20.67084,-25.55126],[20.629,-25.52421],[20.64336,-25.49962],[20.63607,-25.47352],[20.66705,-25.46973],[20.67422,-25.45295],[20.62264,-25.46174],[20.6159,-25.44506],[20.63048,-25.42476],[20.60137,-25.42737],[20.60168,-25.39473],[20.56147,-25.38932],[20.53926,-25.34499],[20.54728,-25.32083],[20.51386,-25.31692],[20.54613,-25.28608],[20.50134,-25.27362],[20.48733,-25.25329],[20.49852,-25.22786],[20.47076,-25.228],[20.4462,-25.19874],[20.46894,-25.15697],[20.4304,-25.15383],[20.41301,-25.08394],[20.37911,-25.06266],[20.38468,-25.03541],[20.29643,-24.98034],[20.25902,-24.92363],[20.22141,-24.91973],[20.20304,-24.89641],[20.1816,-24.91166],[20.14978,-24.87947],[20.11851,-24.88289],[20.08793,-24.85245],[20.08993,-24.83261],[20.03803,-24.80917],[20.00097,-24.76845]]]}},{"type":"Feature","properties":{"name":"Kgatleng"},"geometry":{"type":"Polygon","coordinates":[[[26.68704,-23.93664],[26.724,-23.9568],[26.80118,-23.86263],[26.84287,-23.86225],[26.86857,-23.80943],[26.8932,-23.80372],[26.90283,-23.77873],[26.92211,-23.79622],[26.93032,-23.75696],[26.96231,-23.74752],[26.94883,-23.8148],[26.95851,-23.83073],[26.93217,-23.85095],[26.95506,-23.87349],[26.92764,-23.92223],[26.93212,-23.95496],[26.9145,-23.97152],[26.88435,-24.09019],[26.86028,-24.10623],[26.87903,-24.16016],[26.86448,-24.17895],[26.88317,-24.18979],[26.85938,-24.22316],[26.86588,-24.25082],[26.78562,-24.30659],[26.7332,-24.30424],[26.67568,-24.34398],[26.65857,-24.38504],[26.58755,-24.41051],[26.5596,-24.45339],[26.51019,-24.48819],[26.47124,-24.5889],[26.40879,-24.64564],[26.39275,-24.63649],[26.18877,-24.68684],[26.15762,-24.64544],[25.88888,-24.46022],[25.89221,-24.39336],[25.97483,-24.293],[26.05064,-23.5894],[26.68704,-23.93664]]]}},{"type":"Feature","properties":{"name":"Kweneng East"},"geometry":{"type":"Polygon","coordinates":[[[25.91635,-23.36884],[26.05192,-23.57478],[25.97483,-24.293],[25.89221,-24.39336],[25.88888,-24.46022],[25.97607,-24.51992],[25.81567,-24.68206],[25.83181,-24.69548],[25.81613,-24.71343],[25.80037,-24.697],[25.71794,-24.77741],[25.62811,-24.77563],[25.46255,-24.68058],[25.4275,-24.68889],[25.28181,-24.64139],[25.30262,-24.49692],[25.37435,-24.48378],[25.48214,-24.43595],[25.48428,-24.37884],[25.43979,-24.37638],[25.43647,-24.26272],[25.4912,-24.23357],[25.45252,-24.0852],[25.54817,-24.05379],[25.51319,-23.97956],[25.61176,-23.9818],[25.61267,-23.84188],[25.54912,-23.84523],[25.55996,-23.40027],[25.62096,-23.39994],[25.64272,-23.37909],[25.81503,-23.40745],[25.84917,-23.33575],[25.91635,-23.36884]]]}},{"type":"Feature","properties":{"name":"Kweneng West"},"geometry":{"type":"Polygon","coordinates":[[[25.45974,-22.96221],[25.71188,-23.27642],[25.73885,-23.25499],[25.77669,-23.30004],[25.84917,-23.33575],[25.81503,-23.40745],[25.64272,-23.37909],[25.62096,-23.39994],[25.55996,-23.40027],[25.54912,-23.84523],[25.61267,-23.84188],[25.61176,-23.9818],[25.51319,-23.97956],[25.54817,-24.05379],[25.45252,-24.0852],[25.4912,-24.23357],[25.43647,-24.26272],[25.43979,-24.37638],[25.48428,-24.37884],[25.48214,-24.43595],[25.37435,-24.48378],[25.30262,-24.49692],[25.28181,-24.64139],[23.05905,-24.00601],[23.05906,-23.60069],[22.96447,-23.60067],[22.96451,-23.44084],[23.05902,-23.44088],[23.05903,-23.32085],[25.23898,-23.32135],[25.44708,-22.94644],[25.45974,-22.96221]]]}},{"type":"Feature","properties":{"name":"Lobatse"},"geometry":{"type":"Polygon","coordinates":[[[25.66516,-25.17794],[25.70439,-25.17816],[25.71323,-25.20052],[25.70912,-25.23034],[25.68208,-25.25462],[25.66495,-25.25455],[25.64785,-25.21807],[25.65201,-25.17318],[25.66516,-25.17794]]]}},{"type":"Feature","properties":{"name":"Mahalapye"},"geometry":{"type":"Polygon","coordinates":[[[27.17862,-22.72347],[27.29462,-22.71634],[27.42692,-22.74899],[27.75605,-22.83768],[28.01367,-22.93066],[27.93582,-22.96144],[27.9431,-23.03648],[27.91959,-23.06862],[27.81437,-23.10627],[27.80897,-23.13471],[27.76672,-23.13397],[27.78528,-23.17017],[27.74159,-23.23036],[27.71373,-23.22842],[27.68893,-23.19625],[27.64906,-23.22566],[27.59929,-23.21786],[27.6014,-23.24652],[27.57292,-23.26531],[27.56713,-23.34081],[27.5285,-23.38528],[27.44189,-23.38471],[27.42208,-23.42643],[27.401,-23.41289],[27.40762,-23.38899],[27.37738,-23.39884],[27.37402,-23.42698],[27.35057,-23.42672],[27.3567,-23.40004],[27.33683,-23.40045],[27.30275,-23.46291],[27.25876,-23.47229],[27.23308,-23.49585],[27.22626,-23.48497],[27.19217,-23.49811],[27.21088,-23.52607],[27.20022,-23.53463],[27.13531,-23.52334],[27.15461,-23.56889],[27.1168,-23.56224],[27.09991,-23.60262],[27.05924,-23.6126],[27.0813,-23.64361],[27.07051,-23.67061],[27.03756,-23.68247],[27.03661,-23.65654],[27.00984,-23.63803],[26.99545,-23.65265],[27.00222,-23.68826],[26.9711,-23.70271],[26.96203,-23.74725],[26.93032,-23.75696],[26.92853,-23.78908],[26.91854,-23.79586],[26.90283,-23.77873],[26.89712,-23.80015],[26.87499,-23.80407],[26.87178,-23.82406],[26.84358,-23.84155],[26.84287,-23.86225],[26.80118,-23.86263],[26.724,-23.9568],[26.05064,-23.5894],[25.91635,-23.36884],[25.77669,-23.30004],[25.73885,-23.25499],[25.71188,-23.27642],[25.44406,-22.94273],[25.47119,-22.91817],[26.19261,-22.91881],[26.67144,-22.7161],[26.73747,-22.74644],[26.73678,-22.79518],[26.95098,-22.80636],[26.95251,-22.83055],[26.98535,-22.86577],[27.04293,-22.85387],[27.05166,-22.79507],[27.08582,-22.77939],[27.12568,-22.69908],[27.15066,-22.6979],[27.17862,-22.72347]]]}},{"type":"Feature","properties":{"name":"Ngamiland Delta"},"geometry":{"type":"Polygon","coordinates":[[[23.39208,-19.09189],[23.65998,-19.4931],[22.92614,-20.12468],[22.64774,-19.99619],[22.41039,-19.64105],[22.4675,-18.97718],[23.21913,-18.82701],[23.39208,-19.09189]]]}},{"type":"Feature","properties":{"name":"Ngamiland East"},"geometry":{"type":"Polygon","coordinates":[[[23.90838,-18.26428],[23.9124,-18.99367],[25.03353,-19.001],[25.03545,-19.98805],[25.21058,-20.0661],[25.21249,-20.34021],[24.47246,-20.38505],[24.40896,-20.40319],[24.35884,-20.37538],[24.32679,-20.3217],[24.28271,-20.31564],[24.26802,-20.28268],[24.28194,-20.25579],[24.25933,-20.2207],[24.22899,-20.25567],[24.15449,-20.19859],[24.09752,-20.21563],[24.05538,-20.25567],[24.02986,-20.25216],[23.9946,-20.29233],[23.99841,-20.31022],[23.97138,-20.30604],[23.94111,-20.32678],[23.89096,-20.30192],[23.88411,-21.00068],[22.02413,-20.9993],[22.01297,-19.80285],[22.28281,-19.79857],[22.32992,-19.82284],[22.3756,-19.81142],[22.43271,-19.76002],[22.48196,-19.74813],[22.64774,-19.99619],[22.92614,-20.12468],[23.65998,-19.4931],[23.21913,-18.82701],[23.5743,-18.48364],[23.61609,-18.50233],[23.65706,-18.47881],[23.68686,-18.43087],[23.73769,-18.42506],[23.79592,-18.37397],[23.80291,-18.33995],[23.84443,-18.32688],[23.87685,-18.27343],[23.90838,-18.26428]]]}},{"type":"Feature","properties":{"name":"Ngamiland West"},"geometry":{"type":"Polygon","coordinates":[[[23.29624,-18.00602],[23.3093,-18.00252],[23.30793,-18.03754],[23.33483,-18.05188],[23.32028,-18.05855],[23.3241,-18.08248],[23.36739,-18.11633],[23.3843,-18.16375],[23.40295,-18.17464],[23.39746,-18.20811],[23.44553,-18.21288],[23.45313,-18.23619],[23.50078,-18.242],[23.50301,-18.26608],[23.52582,-18.27311],[23.5289,-18.32198],[23.55877,-18.33723],[23.55363,-18.43329],[23.5743,-18.48364],[23.21913,-18.82701],[22.4675,-18.97718],[22.41039,-19.64105],[22.48196,-19.74813],[22.43271,-19.76002],[22.3756,-19.81142],[22.32992,-19.82284],[22.28281,-19.79857],[22.01297,-19.80285],[22.02413,-20.9993],[20.99875,-20.9951],[20.99877,-18.31733],[21.453,-18.31734],[23.09837,-18.00082],[23.29624,-18.00602]]]}},{"type":"Feature","properties":{"name":"Ngwaketse West"},"geometry":{"type":"Polygon","coordinates":[[[24.12009,-24.83435],[24.14021,-24.85419],[23.05899,-24.85345],[23.05905,-24.00601],[24.29481,-24.36212],[24.29543,-24.43687],[24.09714,-24.43711],[24.09877,-24.62598],[24.18697,-24.66736],[24.18262,-24.82604],[24.12009,-24.83435]]]}},{"type":"Feature","properties":{"name":"North East"},"geometry":{"type":"Polygon","coordinates":[[[27.51134,-20.47673],[27.57663,-20.4942],[27.62192,-20.47915],[27.64667,-20.49871],[27.68332,-20.48671],[27.72955,-20.52208],[27.72899,-20.55703],[27.70339,-20.60272],[27.70482,-20.66595],[27.73326,-20.70376],[27.73338,-20.74157],[27.71764,-20.83826],[27.69334,-20.86619],[27.7019,-20.90524],[27.68945,-20.93428],[27.71031,-20.95783],[27.69553,-21.00588],[27.70465,-21.03799],[27.68531,-21.05176],[27.69303,-21.08689],[27.75036,-21.15312],[27.80531,-21.17535],[27.90457,-21.30269],[27.92062,-21.36202],[27.95739,-21.41308],[27.9517,-21.43086],[27.97774,-21.45697],[27.95734,-21.4728],[27.9837,-21.48493],[27.97022,-21.5175],[28.00219,-21.51632],[27.9943,-21.52858],[28.01083,-21.56149],[27.85951,-21.5312],[27.85237,-21.54929],[27.82755,-21.54228],[27.7607,-21.56371],[27.61376,-21.53011],[27.5776,-21.48043],[27.55951,-21.49185],[27.54067,-21.46919],[27.51554,-21.47586],[27.49365,-21.46082],[27.40549,-21.3297],[27.38789,-21.18653],[27.34824,-21.14356],[27.36321,-21.05759],[27.34328,-21.03505],[27.34858,-20.9946],[27.27431,-20.87541],[27.22736,-20.85823],[27.21431,-20.79345],[27.22835,-20.76701],[27.22171,-20.73226],[27.30632,-20.61523],[27.27997,-20.53325],[27.28866,-20.49894],[27.36231,-20.46819],[27.51134,-20.47673]],[[27.51952,-21.08037],[27.51417,-21.12351],[27.49657,-21.12372],[27.48601,-21.15741],[27.50208,-21.1982],[27.54247,-21.22269],[27.56512,-21.20899],[27.53639,-21.13007],[27.55495,-21.08835],[27.51952,-21.08037]]]}},{"type":"Feature","properties":{"name":"Orapa"},"geometry":{"type":"Polygon","coordinates":[[[25.46109,-21.18282],[25.45633,-21.34796],[25.34069,-21.34796],[25.34096,-21.17688],[25.46109,-21.18282]]]}},{"type":"Feature","properties":{"name":"Selibe Phikwe"},"geometry":{"type":"Polygon","coordinates":[[[27.80514,-21.91794],[27.88494,-21.91927],[27.88689,-21.99909],[27.78544,-21.99671],[27.79086,-21.91735],[27.80514,-21.91794]]]}},{"type":"Feature","properties":{"name":"Serowe Palapye"},"geometry":{"type":"Polygon","coordinates":[[[26.56958,-21.41465],[26.70368,-21.46291],[26.79487,-21.32416],[26.89336,-21.32711],[27.11332,-21.39369],[27.11944,-21.4708],[27.10366,-21.50728],[27.19508,-21.58282],[27.26726,-21.70474],[27.35512,-21.7188],[27.33769,-21.88486],[27.2997,-21.95143],[27.26936,-22.10813],[27.3566,-22.11439],[27.3911,-22.12628],[27.40657,-22.17625],[27.6225,-22.2286],[27.88748,-22.23148],[27.91306,-22.26123],[27.92257,-22.32833],[27.94827,-22.36616],[28.06391,-22.4197],[28.1931,-22.52346],[28.26848,-22.63659],[28.18165,-22.6902],[28.15938,-22.71836],[28.15056,-22.77003],[28.04126,-22.83315],[28.05094,-22.88484],[28.03806,-22.91149],[28.01367,-22.93066],[27.61715,-22.7993],[27.29462,-22.71634],[27.18517,-22.72883],[27.13579,-22.69492],[27.08582,-22.77939],[27.05166,-22.79507],[27.04293,-22.85387],[26.98535,-22.86577],[26.95251,-22.83055],[26.95098,-22.80636],[26.73678,-22.79518],[26.73747,-22.74644],[26.67144,-22.7161],[26.19261,-22.91881],[25.47119,-22.91817],[25.44406,-22.94273],[25.01143,-22.41185],[26.06589,-21.64171],[26.15266,-21.31643],[26.29718,-21.29278],[26.56958,-21.41465]]]}},{"type":"Feature","properties":{"name":"South East"},"geometry":{"type":"MultiPolygon","coordinates":[[[[25.81657,-24.80938],[25.84912,-24.79734],[25.8633,-24.80895],[25.88867,-24.88264],[25.87255,-24.90547],[25.88185,-24.91414],[25.86089,-24.92422],[25.72939,-25.2564],[25.70188,-25.28834],[25.66046,-25.47474],[25.54061,-25.4335],[25.6747,-25.02701],[25.60458,-25.02172],[25.66643,-24.91595],[25.64073,-24.88747],[25.71454,-24.85519],[25.71794,-24.77741],[25.7595,-24.73687],[25.82847,-24.77786],[25.81657,-24.80938]],[[25.66495,-25.25455],[25.70912,-25.23034],[25.70439,-25.17816],[25.65201,-25.17318],[25.64785,-25.21807],[25.66495,-25.25455]]],[[[26.00789,-24.72389],[25.94319,-24.74703],[25.93507,-24.69212],[25.97219,-24.62502],[25.93888,-24.60361],[25.98028,-24.54555],[25.96399,-24.53454],[25.97607,-24.51992],[26.15762,-24.64544],[26.18877,-24.68684],[26.00789,-24.72389]]]]}},{"type":"Feature","properties":{"name":"Southern"},"geometry":{"type":"Polygon","coordinates":[[[24.95246,-24.55149],[25.37283,-24.67617],[25.4275,-24.68889],[25.46255,-24.68058],[25.62811,-24.77563],[25.71794,-24.77741],[25.71454,-24.85519],[25.64073,-24.88747],[25.66643,-24.91595],[25.60458,-25.02172],[25.6747,-25.02701],[25.58048,-25.31585],[25.51417,-25.31928],[25.51429,-25.30338],[25.54081,-25.30349],[25.54089,-25.29136],[25.5369,-25.27454],[25.50538,-25.27063],[25.42998,-25.28241],[25.3376,-25.26976],[25.3372,-25.29417],[25.0809,-25.28445],[25.08212,-25.23556],[24.99997,-25.1532],[24.94603,-25.19439],[24.93922,-25.25558],[24.66709,-25.32412],[24.6697,-25.36936],[24.25564,-25.39236],[24.27033,-24.98251],[24.12009,-24.83435],[24.18262,-24.82604],[24.18697,-24.66736],[24.09877,-24.62598],[24.09714,-24.43711],[24.29543,-24.43687],[24.29481,-24.36212],[24.95246,-24.55149]],[[24.74266,-24.56642],[24.74164,-24.61542],[24.77222,-24.60703],[24.77305,-24.56651],[24.74266,-24.56642]]]}},{"type":"Feature","properties":{"name":"Sowa Town"},"geometry":{"type":"Polygon","coordinates":[[[26.26152,-20.59331],[26.15173,-20.59719],[26.15142,-20.45632],[26.25821,-20.45435],[26.26152,-20.59331]]]}},{"type":"Feature","properties":{"name":"Tutume"},"geometry":{"type":"Polygon","coordinates":[[[26.17023,-19.54635],[26.24697,-19.58569],[26.31234,-19.57613],[26.35861,-19.61485],[26.32804,-19.66421],[26.39171,-19.67115],[26.44063,-19.7489],[26.56239,-19.7817],[26.61851,-19.88089],[26.70278,-19.88801],[26.72619,-19.93987],[26.85146,-19.96157],[26.97887,-20.0145],[27.04042,-20.00874],[27.1127,-20.06577],[27.21696,-20.09345],[27.28477,-20.23217],[27.30014,-20.29635],[27.27997,-20.53325],[27.3087,-20.60678],[27.2587,-20.68933],[27.22544,-20.71514],[27.22835,-20.76701],[27.21431,-20.79345],[27.22736,-20.85823],[27.27431,-20.87541],[27.34858,-20.9946],[27.34328,-21.03505],[27.36321,-21.05759],[27.34824,-21.14356],[27.38789,-21.18653],[27.40549,-21.3297],[27.45679,-21.39124],[27.46205,-21.42199],[27.51554,-21.47586],[27.54067,-21.46919],[27.55951,-21.49185],[27.5776,-21.48043],[27.61376,-21.53011],[27.73407,-21.5512],[27.65571,-21.59873],[27.58779,-21.73764],[27.49004,-21.74336],[27.26726,-21.70474],[27.19508,-21.58282],[27.10366,-21.50728],[27.11944,-21.4708],[27.11332,-21.39369],[26.89336,-21.32711],[26.79487,-21.32416],[26.70368,-21.46291],[26.29718,-21.29278],[26.28604,-21.11146],[26.3592,-21.10673],[26.38882,-21.08401],[26.39334,-21.04776],[26.29586,-21.0532],[26.28321,-20.96086],[26.1502,-20.88983],[25.5379,-20.88983],[25.4351,-20.66521],[24.96111,-20.65949],[24.9628,-20.35439],[25.21249,-20.34021],[25.21058,-20.0661],[25.03545,-19.98805],[25.03353,-19.001],[25.98871,-19.00028],[25.99658,-19.03154],[25.96534,-19.06667],[25.96453,-19.10793],[26.07216,-19.27241],[26.17023,-19.54635]],[[26.15113,-20.56278],[26.15173,-20.59719],[26.26152,-20.59331],[26.25821,-20.45435],[26.15142,-20.45632],[26.15113,-20.56278]]]}}]}